DEORBITSAIL
1 40719U 15032E   16077.12696834  .00001422  00000-0  21676-3 0  9996
2 40719  98.0282 329.5210 0016756 167.9138 192.2476 14.75360750 36912
NUDT-PHONESAT
1 40900U 15049B   16077.72345759  .00007961  00000-0  41688-3 0  9998
2 40900  97.4471  87.1193 0016352  20.6087  67.2493 15.15962070 27215
XW-2D
1 40907U 15049J   16077.82346387  .00003763  00000-0  21465-3 0  9991
2 40907  97.4517  86.7983 0015399 359.1979 124.1772 15.13270727 27183
XW-2F
1 40910U 15049M   16077.87386613  .00004864  00000-0  27387-3 0  9998
2 40910  97.4552  86.9448 0016481 357.6388  89.0873 15.13579831 27082
XW-2B
1 40911U 15049N   16077.82222486  .00003589  00000-0  20491-3 0  9993
2 40911  97.4570  86.9149 0015551 359.3459 124.3105 15.13264216 27085
DCBB
1 40912U 15049P   16077.86415892  .00005110  00000-0  27273-3 0  9990
2 40912  97.4550  87.4377 0016606 354.1983 125.1495 15.15464704 27122
TW-1C
1 40926U 15051B   16077.77343023  .00015087  00000-0  45017-3 0  9994
2 40926  97.2866 115.7504 0015710  24.6413  65.6648 15.34605525 26737
TW-1A
1 40928U 15051D   16077.81066883  .00006675  00000-0  21536-3 0  9990
2 40928  97.2803 115.3984 0015851  38.1750  19.5062 15.32352740 26721
IO-86
1 40931U 15052B   16077.75099340  .00000816  00000-0  24712-4 0  9993
2 40931   5.9989 246.9621 0013690 267.6816  92.1848 14.76438293 25392
AAUSat-5
1 40948U 98067GZ  16075.45781431  .13016099  12363-4  13142-2 0  9998
2 40948  51.6105 144.8409 0002621 342.4028  18.3599 16.37207905 25449
GomX-3
1 40949U 98067HA  16077.72083531  .00055505  00000-0  45982-3 0  9997
2 40949  51.6378 144.4228 0004695 271.6828  88.3631 15.69667631 25669
LQSat
1 40958U 15057A   16077.86901699  .00000288  00000-0  52682-4 0  9998
2 40958  98.0207 153.9390 0019727  86.5525 273.7924 14.72832649 23949
AO-85
1 40967U 15058D   16077.52068459  .00002068  00000-0  23101-3 0 00734
2 40967 064.7779 163.7796 0212603 233.6565 124.4692 14.74873672009759
ATHENOXAT-1
1 41168U 15077C   16075.88713271  .00006680  00000-0  36515-3 0  9999
2 41168  14.9897 272.3591 0012838 161.1602 322.1967 15.09375723 13633
AGGIESAT4
1 41313U 98067HP  16077.75139542  .00021657  00000-0  30576-3 0  9994
2 41313  51.6458 153.6335 0004215 232.1034 127.9577 15.56497876  7470
ChubuSat-2
1 41338U 16012B   16077.51372002  .00001440  00000-0  10829-3 0  9992
2 41338  31.0033 131.6885 0013982 221.3880 138.5696 14.99258465  4386
ChubuSat-3
1 41339U 16012C   16077.50904470  .00001345  00000-0  10009-3 0  9996
2 41339  31.0089 131.6477 0013784 227.0541 132.8937 14.99495676  4351
Horyu-4
1 41340U 16012D   16077.50328846  .00002154  00000-0  16296-3 0  9998
2 41340  31.0050 131.6011 0014407 231.2193 128.7155 14.99816539  4371
